{"type": "FeatureCollection", "features": [ {"type": "Feature", "properties": {"norad_id": 35022, "name": "COSMOS 2251 DEB", "group": "cosmos-2251-debris", "lat": 67.89700725072852, "lon": 82.90507407214831, "alt_km": 658.2121487126724, "timestamp": "2025-12-20T03:42:47.790075+00:00", "meta": {"OBJECT_NAME": "COSMOS 2251 DEB", "OBJECT_ID": "1993-036AGK", "EPOCH": "2025-12-15T14:45:27.251136", "MEAN_MOTION": 14.60846809, "ECCENTRICITY": 0.00465822, "INCLINATION": 74.027, "RA_OF_ASC_NODE": 316.4327, "ARG_OF_PERICENTER": 155.4398, "MEAN_ANOMALY": 204.9001, "EPHEMERIS_TYPE": 0, "CLASSIFICATION_TYPE": "U", "NORAD_CAT_ID": 35022, "ELEMENT_SET_NO": 999, "REV_AT_EPOCH": 59185, "BSTAR": 0.00033959453, "MEAN_MOTION_DOT": 1.655e-05, "MEAN_MOTION_DDOT": 0}, "tle": {"line1": "1 35022U 93036AGK 25349.61489874  .00001655  00000+0  33959-3 0  9991", "line2": "2 35022  74.0270 316.4327 0046582 155.4398 204.9001 14.60846809591850"}}, "geometry": {"type": "Point", "coordinates": [82.90507407214831, 67.89700725072852]}}, {"type": "Feature", "properties": {"norad_id": 35023, "name": "COSMOS 2251 DEB", "group": "cosmos-2251-debris", "lat": 58.93608053585603, "lon": -10.742094923703307, "alt_km": 597.0419665482186, "timestamp": "2025-12-20T03:42:47.790085+00:00", "meta": {"OBJECT_NAME": "COSMOS 2251 DEB", "OBJECT_ID": "1993-036AGL", "EPOCH": "2025-12-19T14:27:11.024352", "MEAN_MOTION": 14.9529687, "ECCENTRICITY": 0.0033771, "INCLINATION": 74.0365, "RA_OF_ASC_NODE": 198.7445, "ARG_OF_PERICENTER": 275.5056, "MEAN_ANOMALY": 108.6541, "EPHEMERIS_TYPE": 0, "CLASSIFICATION_TYPE": "U", "NORAD_CAT_ID": 35023, "ELEMENT_SET_NO": 999, "REV_AT_EPOCH": 88382, "BSTAR": 0.00097494, "MEAN_MOTION_DOT": 0.00010843, "MEAN_MOTION_DDOT": 0}, "tle": {"line1": "1 35023U 93036AGL 25353.60221093  .00010843  00000+0  97494-3 0  9996", "line2": "2 35023  74.0365 198.7445 0033771 275.5056 108.6541 14.95296870883824"}}, "geometry": {"type": "Point", "coordinates": [-10.742094923703307, 58.93608053585603]}}, {"type": "Feature", "properties": {"norad_id": 35025, "name": "COSMOS 2251 DEB", "group": "cosmos-2251-debris", "lat": -45.59462999066522, "lon": 31.29490841622692, "alt_km": 599.1417588090198, "timestamp": "2025-12-20T03:42:47.790095+00:00", "meta": {"OBJECT_NAME": "COSMOS 2251 DEB", "OBJECT_ID": "1993-036AGN", "EPOCH": "2025-12-19T09:59:39.839712", "MEAN_MOTION": 14.72739252, "ECCENTRICITY": 0.0085474, "INCLINATION": 73.9385, "RA_OF_ASC_NODE": 49.8468, "ARG_OF_PERICENTER": 321.2359, "MEAN_ANOMALY": 38.2699, "EPHEMERIS_TYPE": 0, "CLASSIFICATION_TYPE": "U", "NORAD_CAT_ID": 35025, "ELEMENT_SET_NO": 999, "REV_AT_EPOCH": 88741, "BSTAR": 0.00027132, "MEAN_MOTION_DOT": 1.798e-05, "MEAN_MOTION_DDOT": 0}, "tle": {"line1": "1 35025U 93036AGN 25353.41643333  .00001798  00000+0  27132-3 0  9993", "line2": "2 35025  73.9385  49.8468 0085474 321.2359  38.2699 14.72739252887411"}}, "geometry": {"type": "Point", "coordinates": [31.29490841622692, -45.59462999066522]}}, {"type": "Feature", "properties": {"norad_id": 35026, "name": "COSMOS 2251 DEB", "group": "cosmos-2251-debris", "lat": 30.94762458282624, "lon": -45.31858252624426, "alt_km": 658.2203192409152, "timestamp": "2025-12-20T03:42:47.790105+00:00", "meta": {"OBJECT_NAME": "COSMOS 2251 DEB", "OBJECT_ID": "1993-036AGP", "EPOCH": "2025-12-18T03:45:00.139104", "MEAN_MOTION": 14.53626797, "ECCENTRICITY": 0.0082422, "INCLINATION": 74.047, "RA_OF_ASC_NODE": 308.5764, "ARG_OF_PERICENTER": 60.5026, "MEAN_ANOMALY": 318.4835, "EPHEMERIS_TYPE": 0, "CLASSIFICATION_TYPE": "U", "NORAD_CAT_ID": 35026, "ELEMENT_SET_NO": 999, "REV_AT_EPOCH": 88222, "BSTAR": 6.097601e-05, "MEAN_MOTION_DOT": 2.37e-06, "MEAN_MOTION_DDOT": 0}, "tle": {"line1": "1 35026U 93036AGP 25352.15625161  .00000237  00000+0  60976-4 0  9994", "line2": "2 35026  74.0470 308.5764 0082422  60.5026 318.4835 14.53626797882224"}}, "geometry": {"type": "Point", "coordinates": [-45.31858252624426, 30.94762458282624]}}, {"type": "Feature", "properties": {"norad_id": 35028, "name": "COSMOS 2251 DEB", "group": "cosmos-2251-debris", "lat": -41.76578355350257, "lon": 91.71971495009157, "alt_km": 766.9816350091614, "timestamp": "2025-12-20T03:42:47.790116+00:00", "meta": {"OBJECT_NAME": "COSMOS 2251 DEB", "OBJECT_ID": "1993-036AGR", "EPOCH": "2025-12-18T03:11:52.081152", "MEAN_MOTION": 14.56575396, "ECCENTRICITY": 0.00826724, "INCLINATION": 74.0383, "RA_OF_ASC_NODE": 260.7455, "ARG_OF_PERICENTER": 32.9493, "MEAN_ANOMALY": 35.4382, "EPHEMERIS_TYPE": 0, "CLASSIFICATION_TYPE": "U", "NORAD_CAT_ID": 35028, "ELEMENT_SET_NO": 999, "REV_AT_EPOCH": 88364, "BSTAR": 8.3392474e-05, "MEAN_MOTION_DOT": 3.58e-06, "MEAN_MOTION_DDOT": 0}, "tle": {"line1": "1 35028U 93036AGR 25352.13324168  .00000358  00000+0  83392-4 0  9998", "line2": "2 35028  74.0383 260.7455 0082672  32.9493  35.4382 14.56575396883644"}}, "geometry": {"type": "Point", "coordinates": [91.71971495009157, -41.76578355350257]}}, {"type": "Feature", "properties": {"norad_id": 35031, "name": "COSMOS 2251 DEB", "group": "cosmos-2251-debris", "lat": 7.626354202155339, "lon": -112.20013998336518, "alt_km": 753.9397065170424, "timestamp": "2025-12-20T03:42:47.790126+00:00", "meta": {"OBJECT_NAME": "COSMOS 2251 DEB", "OBJECT_ID": "1993-036AGU", "EPOCH": "2025-12-17T23:55:41.225088", "MEAN_MOTION": 14.38299529, "ECCENTRICITY": 0.00190755, "INCLINATION": 74.0382, "RA_OF_ASC_NODE": 249.5774, "ARG_OF_PERICENTER": 342.0186, "MEAN_ANOMALY": 18.0291, "EPHEMERIS_TYPE": 0, "CLASSIFICATION_TYPE": "U", "NORAD_CAT_ID": 35031, "ELEMENT_SET_NO": 999, "REV_AT_EPOCH": 65359, "BSTAR": 0.00013785455, "MEAN_MOTION_DOT": 3.94e-06, "MEAN_MOTION_DDOT": 0}, "tle": {"line1": "1 35031U 93036AGU 25351.99700492  .00000394  00000+0  13785-3 0  9991", "line2": "2 35031  74.0382 249.5774 0019075 342.0186  18.0291 14.38299529653593"}}, "geometry": {"type": "Point", "coordinates": [-112.20013998336518, 7.626354202155339]}}, {"type": "Feature", "properties": {"norad_id": 35032, "name": "COSMOS 2251 DEB", "group": "cosmos-2251-debris", "lat": 55.089630449016, "lon": 17.52615348817576, "alt_km": 730.4624267967984, "timestamp": "2025-12-20T03:42:47.790136+00:00", "meta": {"OBJECT_NAME": "COSMOS 2251 DEB", "OBJECT_ID": "1993-036AGV", "EPOCH": "2025-12-19T18:23:09.888288", "MEAN_MOTION": 14.58776682, "ECCENTRICITY": 0.0067891, "INCLINATION": 73.8514, "RA_OF_ASC_NODE": 353.7437, "ARG_OF_PERICENTER": 203.8802, "MEAN_ANOMALY": 335.1362, "EPHEMERIS_TYPE": 0, "CLASSIFICATION_TYPE": "U", "NORAD_CAT_ID": 35032, "ELEMENT_SET_NO": 999, "REV_AT_EPOCH": 87776, "BSTAR": 0.00054982, "MEAN_MOTION_DOT": 2.62e-05, "MEAN_MOTION_DDOT": 0}, "tle": {"line1": "1 35032U 93036AGV 25353.76608667  .00002620  00000+0  54982-3 0  9998", "line2": "2 35032  73.8514 353.7437 0067891 203.8802 335.1362 14.58776682877761"}}, "geometry": {"type": "Point", "coordinates": [17.52615348817576, 55.089630449016]}}, {"type": "Feature", "properties": {"norad_id": 35033, "name": "COSMOS 2251 DEB", "group": "cosmos-2251-debris", "lat": -51.30260324127666, "lon": 3.5763381962807306, "alt_km": 720.6238362728946, "timestamp": "2025-12-20T03:42:47.790146+00:00", "meta": {"OBJECT_NAME": "COSMOS 2251 DEB", "OBJECT_ID": "1993-036AGW", "EPOCH": "2025-12-19T05:07:27.625152", "MEAN_MOTION": 14.50959586, "ECCENTRICITY": 0.001448, "INCLINATION": 74.0251, "RA_OF_ASC_NODE": 164.3945, "ARG_OF_PERICENTER": 270.8601, "MEAN_ANOMALY": 89.0901, "EPHEMERIS_TYPE": 0, "CLASSIFICATION_TYPE": "U", "NORAD_CAT_ID": 35033, "ELEMENT_SET_NO": 999, "REV_AT_EPOCH": 66021, "BSTAR": 0.00048139, "MEAN_MOTION_DOT": 1.877e-05, "MEAN_MOTION_DDOT": 0}, "tle": {"line1": "1 35033U 93036AGW 25353.21351418  .00001877  00000+0  48139-3 0  9998", "line2": "2 35033  74.0251 164.3945 0014480 270.8601  89.0901 14.50959586660212"}}, "geometry": {"type": "Point", "coordinates": [3.5763381962807306, -51.30260324127666]}}, {"type": "Feature", "properties": {"norad_id": 35038, "name": "COSMOS 2251 DEB", "group": "cosmos-2251-debris", "lat": -49.0922690399499, "lon": -131.53580562577955, "alt_km": 876.1796754952984, "timestamp": "2025-12-20T03:42:47.790156+00:00", "meta": {"OBJECT_NAME": "COSMOS 2251 DEB", "OBJECT_ID": "1993-036AHB", "EPOCH": "2025-12-16T02:43:57.942048", "MEAN_MOTION": 14.25166694, "ECCENTRICITY": 0.01140711, "INCLINATION": 74.1077, "RA_OF_ASC_NODE": 36.5236, "ARG_OF_PERICENTER": 19.3791, "MEAN_ANOMALY": 9.3469, "EPHEMERIS_TYPE": 0, "CLASSIFICATION_TYPE": "U", "NORAD_CAT_ID": 35038, "ELEMENT_SET_NO": 999, "REV_AT_EPOCH": 85617, "BSTAR": 0.00096319549, "MEAN_MOTION_DOT": 2.397e-05, "MEAN_MOTION_DDOT": 0}, "tle": {"line1": "1 35038U 93036AHB 25350.11386507  .00002397  00000+0  96320-3 0  9999", "line2": "2 35038  74.1077  36.5236 0114071  19.3791   9.3469 14.25166694856178"}}, "geometry": {"type": "Point", "coordinates": [-131.53580562577955, -49.0922690399499]}}, {"type": "Feature", "properties": {"norad_id": 35043, "name": "COSMOS 2251 DEB", "group": "cosmos-2251-debris", "lat": 18.481320785075212, "lon": 36.480453141536955, "alt_km": 689.3760789748467, "timestamp": "2025-12-20T03:42:47.790166+00:00", "meta": {"OBJECT_NAME": "COSMOS 2251 DEB", "OBJECT_ID": "1993-036AHG", "EPOCH": "2025-12-18T09:22:03.578880", "MEAN_MOTION": 14.77234349, "ECCENTRICITY": 0.00960967, "INCLINATION": 73.9519, "RA_OF_ASC_NODE": 34.4369, "ARG_OF_PERICENTER": 242.9214, "MEAN_ANOMALY": 116.2132, "EPHEMERIS_TYPE": 0, "CLASSIFICATION_TYPE": "U", "NORAD_CAT_ID": 35043, "ELEMENT_SET_NO": 999, "REV_AT_EPOCH": 67502, "BSTAR": 0.0030540152, "MEAN_MOTION_DOT": 0.00023411, "MEAN_MOTION_DDOT": 0}, "tle": {"line1": "1 35043U 93036AHG 25352.39031920  .00023411  00000+0  30540-2 0  9994", "line2": "2 35043  73.9519  34.4369 0096096 242.9214 116.2132 14.77234349675024"}}, "geometry": {"type": "Point", "coordinates": [36.480453141536955, 18.481320785075212]}}]}